{
 "generated_at": "2026-07-10T08:23:00Z",
 "sources": [
  {
   "name": "CelesTrak",
   "url": "https://celestrak.org/NORAD/elements/",
   "license": "frei verfügbar; Attribution. Ursprünglich USSPACECOM/Space-Track."
  },
  {
   "name": "GCAT (J. McDowell, planet4589.org)",
   "url": "https://planet4589.org/space/gcat/",
   "license": "CC-BY 4.0"
  }
 ],
 "satellites": [
  {
   "norad": 39766,
   "name": "ALOS-2",
   "intl": "2014-029A",
   "group": "resource",
   "gcat": {
    "class": "C",
    "category": "IMG",
    "owner": "JAXA",
    "state": "J"
   },
   "omm": {
    "OBJECT_NAME": "ALOS-2",
    "OBJECT_ID": "2014-029A",
    "EPOCH": "2026-07-09T20:43:53.170176",
    "MEAN_MOTION": 14.79474132,
    "ECCENTRICITY": 0.0001634,
    "INCLINATION": 97.922,
    "RA_OF_ASC_NODE": 287.7038,
    "ARG_OF_PERICENTER": 91.018,
    "MEAN_ANOMALY": 269.1219,
    "EPHEMERIS_TYPE": 0,
    "CLASSIFICATION_TYPE": "U",
    "NORAD_CAT_ID": 39766,
    "ELEMENT_SET_NO": 999,
    "REV_AT_EPOCH": 65493,
    "BSTAR": 0.000086155,
    "MEAN_MOTION_DOT": 0.00000592,
    "MEAN_MOTION_DDOT": 0
   }
  },
  {
   "norad": 60182,
   "name": "ALOS-4 (DAICHI-4)",
   "intl": "2024-123A",
   "group": "resource",
   "gcat": {
    "class": "C",
    "category": "IMG",
    "owner": "JAXA",
    "state": "J"
   },
   "omm": {
    "OBJECT_NAME": "ALOS-4 (DAICHI-4)",
    "OBJECT_ID": "2024-123A",
    "EPOCH": "2026-07-09T19:34:22.353600",
    "MEAN_MOTION": 14.79472587,
    "ECCENTRICITY": 0.0001615,
    "INCLINATION": 97.922,
    "RA_OF_ASC_NODE": 287.6667,
    "ARG_OF_PERICENTER": 97.9415,
    "MEAN_ANOMALY": 262.198,
    "EPHEMERIS_TYPE": 0,
    "CLASSIFICATION_TYPE": "U",
    "NORAD_CAT_ID": 60182,
    "ELEMENT_SET_NO": 999,
    "REV_AT_EPOCH": 10922,
    "BSTAR": 0.00013786,
    "MEAN_MOTION_DOT": 0.00000978,
    "MEAN_MOTION_DDOT": 0
   }
  },
  {
   "norad": 41785,
   "name": "ALSAT-1B",
   "intl": "2016-059C",
   "group": "resource",
   "gcat": {
    "class": "C",
    "category": "IMG",
    "owner": "ASAL",
    "state": "DZ"
   },
   "omm": {
    "OBJECT_NAME": "ALSAT-1B",
    "OBJECT_ID": "2016-059C",
    "EPOCH": "2026-07-09T20:55:28.922592",
    "MEAN_MOTION": 14.72292848,
    "ECCENTRICITY": 0.000996,
    "INCLINATION": 97.7759,
    "RA_OF_ASC_NODE": 198.6565,
    "ARG_OF_PERICENTER": 145.2466,
    "MEAN_ANOMALY": 214.9395,
    "EPHEMERIS_TYPE": 0,
    "CLASSIFICATION_TYPE": "U",
    "NORAD_CAT_ID": 41785,
    "ELEMENT_SET_NO": 999,
    "REV_AT_EPOCH": 52391,
    "BSTAR": 0.000082072,
    "MEAN_MOTION_DOT": 0.00000472,
    "MEAN_MOTION_DDOT": 0
   }
  },
  {
   "norad": 27424,
   "name": "AQUA",
   "intl": "2002-022A",
   "group": "resource",
   "gcat": {
    "class": "C",
    "category": "IMG",
    "owner": "GSFC",
    "state": "US"
   },
   "omm": {
    "OBJECT_NAME": "AQUA",
    "OBJECT_ID": "2002-022A",
    "EPOCH": "2026-07-09T20:19:22.465920",
    "MEAN_MOTION": 14.62192238,
    "ECCENTRICITY": 0.0000785,
    "INCLINATION": 98.4291,
    "RA_OF_ASC_NODE": 160.5845,
    "ARG_OF_PERICENTER": 103.5476,
    "MEAN_ANOMALY": 343.2193,
    "EPHEMERIS_TYPE": 0,
    "CLASSIFICATION_TYPE": "U",
    "NORAD_CAT_ID": 27424,
    "ELEMENT_SET_NO": 999,
    "REV_AT_EPOCH": 28658,
    "BSTAR": 0.0001073,
    "MEAN_MOTION_DOT": 0.00000491,
    "MEAN_MOTION_DDOT": 0
   }
  },
  {
   "norad": 29268,
   "name": "ARIRANG-2 (KOMPSAT-2)",
   "intl": "2006-031A",
   "group": "resource",
   "gcat": {
    "class": "C",
    "category": "IMG",
    "owner": "KARI",
    "state": "KR"
   },
   "omm": {
    "OBJECT_NAME": "ARIRANG-2 (KOMPSAT-2)",
    "OBJECT_ID": "2006-031A",
    "EPOCH": "2026-07-09T20:19:34.904928",
    "MEAN_MOTION": 14.6467506,
    "ECCENTRICITY": 0.0014719,
    "INCLINATION": 97.8319,
    "RA_OF_ASC_NODE": 14.1982,
    "ARG_OF_PERICENTER": 7.7653,
    "MEAN_ANOMALY": 104.994,
    "EPHEMERIS_TYPE": 0,
    "CLASSIFICATION_TYPE": "U",
    "NORAD_CAT_ID": 29268,
    "ELEMENT_SET_NO": 999,
    "REV_AT_EPOCH": 6479,
    "BSTAR": 0.00011409,
    "MEAN_MOTION_DOT": 0.00000563,
    "MEAN_MOTION_DDOT": 0
   }
  },
  {
   "norad": 38338,
   "name": "ARIRANG-3 (KOMPSAT-3)",
   "intl": "2012-025B",
   "group": "resource",
   "gcat": {
    "class": "C",
    "category": "IMG",
    "owner": "KARI",
    "state": "KR"
   },
   "omm": {
    "OBJECT_NAME": "ARIRANG-3 (KOMPSAT-3)",
    "OBJECT_ID": "2012-025B",
    "EPOCH": "2026-07-09T19:40:42.649248",
    "MEAN_MOTION": 14.62226205,
    "ECCENTRICITY": 0.0006507,
    "INCLINATION": 98.1182,
    "RA_OF_ASC_NODE": 147.8909,
    "ARG_OF_PERICENTER": 52.7596,
    "MEAN_ANOMALY": 307.4198,
    "EPHEMERIS_TYPE": 0,
    "CLASSIFICATION_TYPE": "U",
    "NORAD_CAT_ID": 38338,
    "ELEMENT_SET_NO": 999,
    "REV_AT_EPOCH": 75465,
    "BSTAR": 0.000063294,
    "MEAN_MOTION_DOT": 0.00000272,
    "MEAN_MOTION_DDOT": 0
   }
  },
  {
   "norad": 39227,
   "name": "ARIRANG-5 (KOMPSAT-5)",
   "intl": "2013-042A",
   "group": "resource",
   "gcat": {
    "class": "C",
    "category": "IMG-R",
    "owner": "KARI",
    "state": "KR"
   },
   "omm": {
    "OBJECT_NAME": "ARIRANG-5 (KOMPSAT-5)",
    "OBJECT_ID": "2013-042A",
    "EPOCH": "2026-07-09T20:17:20.245344",
    "MEAN_MOTION": 15.04519879,
    "ECCENTRICITY": 0.0005522,
    "INCLINATION": 97.6222,
    "RA_OF_ASC_NODE": 17.2279,
    "ARG_OF_PERICENTER": 71.358,
    "MEAN_ANOMALY": 288.8245,
    "EPHEMERIS_TYPE": 0,
    "CLASSIFICATION_TYPE": "U",
    "NORAD_CAT_ID": 39227,
    "ELEMENT_SET_NO": 999,
    "REV_AT_EPOCH": 70726,
    "BSTAR": 0.000088852,
    "MEAN_MOTION_DOT": 0.00001184,
    "MEAN_MOTION_DDOT": 0
   }
  },
  {
   "norad": 47719,
   "name": "ARKTIKA-M 1",
   "intl": "2021-016A",
   "group": "weather",
   "gcat": {
    "class": "C",
    "category": "MET",
    "owner": "ROSK",
    "state": "RU"
   },
   "omm": {
    "OBJECT_NAME": "ARKTIKA-M 1",
    "OBJECT_ID": "2021-016A",
    "EPOCH": "2026-07-07T10:17:34.884672",
    "MEAN_MOTION": 2.00614486,
    "ECCENTRICITY": 0.72950864,
    "INCLINATION": 63.2524,
    "RA_OF_ASC_NODE": 54.6812,
    "ARG_OF_PERICENTER": 270.038,
    "MEAN_ANOMALY": 14.5466,
    "EPHEMERIS_TYPE": 0,
    "CLASSIFICATION_TYPE": "U",
    "NORAD_CAT_ID": 47719,
    "ELEMENT_SET_NO": 999,
    "REV_AT_EPOCH": 3919,
    "BSTAR": 0,
    "MEAN_MOTION_DOT": -0.00000257,
    "MEAN_MOTION_DDOT": 0
   }
  },
  {
   "norad": 58584,
   "name": "ARKTIKA-M 2",
   "intl": "2023-198A",
   "group": "weather",
   "gcat": {
    "class": "C",
    "category": "MET",
    "owner": "ROSK",
    "state": "RU"
   },
   "omm": {
    "OBJECT_NAME": "ARKTIKA-M 2",
    "OBJECT_ID": "2023-198A",
    "EPOCH": "2026-07-08T04:42:49.048128",
    "MEAN_MOTION": 2.00608968,
    "ECCENTRICITY": 0.69084583,
    "INCLINATION": 63.2191,
    "RA_OF_ASC_NODE": 152.0158,
    "ARG_OF_PERICENTER": 267.3598,
    "MEAN_ANOMALY": 18.7565,
    "EPHEMERIS_TYPE": 0,
    "CLASSIFICATION_TYPE": "U",
    "NORAD_CAT_ID": 58584,
    "ELEMENT_SET_NO": 999,
    "REV_AT_EPOCH": 1874,
    "BSTAR": 0,
    "MEAN_MOTION_DOT": 0.00000204,
    "MEAN_MOTION_DDOT": 0
   }
  },
  {
   "norad": 40298,
   "name": "ASNARO",
   "intl": "2014-070A",
   "group": "resource",
   "gcat": {
    "class": null,
    "category": "IMG",
    "owner": "JSS",
    "state": "J"
   },
   "omm": {
    "OBJECT_NAME": "ASNARO",
    "OBJECT_ID": "2014-070A",
    "EPOCH": "2026-07-09T19:28:16.751136",
    "MEAN_MOTION": 15.19779472,
    "ECCENTRICITY": 0.0006752,
    "INCLINATION": 97.3442,
    "RA_OF_ASC_NODE": 266.317,
    "ARG_OF_PERICENTER": 102.1731,
    "MEAN_ANOMALY": 258.0261,
    "EPHEMERIS_TYPE": 0,
    "CLASSIFICATION_TYPE": "U",
    "NORAD_CAT_ID": 40298,
    "ELEMENT_SET_NO": 999,
    "REV_AT_EPOCH": 64744,
    "BSTAR": 0.00029503,
    "MEAN_MOTION_DOT": 0.00006251,
    "MEAN_MOTION_DDOT": 0
   }
  }
 ]
}
